IRIDIUM 26              
1 24903U 97043A   25189.49170732  .00000239  00000+0  73742-4 0  9999
2 24903  86.3956 101.6744 0002311  80.4495 279.6963 14.37158480459806
IRIDIUM 22              
1 24907U 97043E   25189.29977886  .00000236  00000+0  74613-4 0  9991
2 24907  86.3964 105.3131 0002153  83.6270 276.5172 14.35969409459807
DUMMY MASS 1            
1 24925U 97048A   25189.34576697  .00000317  00000+0  32207-4 0  9990
2 24925  86.3364 125.5495 0009006  76.5163 283.7065 14.86999793508276
DUMMY MASS 2            
1 24926U 97048B   25189.58066160  .00000303  00000+0  30781-4 0  9996
2 24926  86.3367 127.0518 0009877  84.3604 275.8747 14.86751937508080
IRIDIUM 29              
1 24944U 97051A   25189.59384133  .00000281  00000+0  89002-4 0  9999
2 24944  86.3982 134.9224 0002181  90.3645 269.7802 14.36481708456343
IRIDIUM 33              
1 24946U 97051C   25189.38994923  .00000240  00000+0  77558-4 0  9990
2 24946  86.3897 134.2698 0008652  24.2265 335.9336 14.34903332455786
IRIDIUM 28              
1 24948U 97051E   25189.55397060  .00000258  00000+0  79717-4 0  9998
2 24948  86.3986 132.4434 0002495  75.0965 285.0509 14.37398008456919
IRIDIUM 36              
1 24967U 97056C   25189.44438115  .00000293  00000+0  91131-4 0  9992
2 24967  86.3997 164.0736 0002115  82.5750 277.5688 14.37622853455272
